{
  "type": "FeatureCollection",
  "features": [
    {
      "type": "Feature",
      "properties": {
        "norad_id": 38060,
        "name": "COSMOS 2251 DEB",
        "group": "cosmos-2251-debris",
        "lat": 12.473510406599566,
        "lon": 95.50842895208865,
        "alt_km": 714.7175896429499,
        "timestamp": "2025-12-21T03:56:51.230379+00:00",
        "meta_object_name": "COSMOS 2251 DEB",
        "meta_object_id": "1993-036BRS",
        "meta_epoch": "2025-12-18T12:51:56.479104",
        "meta_mean_motion": 14.63889679,
        "meta_eccentricity": 0.00583817,
        "meta_inclination": 74.0432,
        "meta_ra_of_asc_node": 284.1799,
        "meta_arg_of_pericenter": 28.687,
        "meta_mean_anomaly": 331.7487,
        "meta_ephemeris_type": 0,
        "meta_classification_type": "U",
        "meta_norad_cat_id": 38060,
        "meta_element_set_no": 999,
        "meta_rev_at_epoch": 72049,
        "meta_bstar": 0.00043764509,
        "meta_mean_motion_dot": 2.314e-05,
        "meta_mean_motion_ddot": 0,
        "tle_line1": "1 38060U 93036BRS 25352.53607036  .00002314  00000+0  43765-3 0  9992",
        "tle_line2": "2 38060  74.0432 284.1799 0058381  28.6870 331.7487 14.63889679720491"
      },
      "geometry": {
        "type": "Point",
        "coordinates": [
          95.50842895208865,
          12.473510406599566
        ]
      }
    },
    {
      "type": "Feature",
      "properties": {
        "norad_id": 38062,
        "name": "COSMOS 2251 DEB",
        "group": "cosmos-2251-debris",
        "lat": -0.5093026517532381,
        "lon": -86.69712021122173,
        "alt_km": 577.6848927364508,
        "timestamp": "2025-12-21T03:56:51.230388+00:00",
        "meta_object_name": "COSMOS 2251 DEB",
        "meta_object_id": "1993-036BRU",
        "meta_epoch": "2025-12-20T12:40:12.328608",
        "meta_mean_motion": 14.95206267,
        "meta_eccentricity": 0.00129431,
        "meta_inclination": 74.0088,
        "meta_ra_of_asc_node": 274.7346,
        "meta_arg_of_pericenter": 42.7602,
        "meta_mean_anomaly": 131.9089,
        "meta_ephemeris_type": 0,
        "meta_classification_type": "U",
        "meta_norad_cat_id": 38062,
        "meta_element_set_no": 999,
        "meta_rev_at_epoch": 63146,
        "meta_bstar": 0.0014745207,
        "meta_mean_motion_dot": 0.00016237,
        "meta_mean_motion_ddot": 0,
        "tle_line1": "1 38062U 93036BRU 25354.52792047  .00016237  00000+0  14745-2 0  9996",
        "tle_line2": "2 38062  74.0088 274.7346 0012943  42.7602 131.9089 14.95206267631464"
      },
      "geometry": {
        "type": "Point",
        "coordinates": [
          -86.69712021122173,
          -0.5093026517532381
        ]
      }
    },
    {
      "type": "Feature",
      "properties": {
        "norad_id": 38064,
        "name": "COSMOS 2251 DEB",
        "group": "cosmos-2251-debris",
        "lat": -4.263462607464101,
        "lon": -70.63386476983018,
        "alt_km": 683.1331362188275,
        "timestamp": "2025-12-21T03:56:51.230397+00:00",
        "meta_object_name": "COSMOS 2251 DEB",
        "meta_object_id": "1993-036BRW",
        "meta_epoch": "2025-12-19T18:07:41.080512",
        "meta_mean_motion": 14.56354752,
        "meta_eccentricity": 0.0047209,
        "meta_inclination": 74.0226,
        "meta_ra_of_asc_node": 110.8167,
        "meta_arg_of_pericenter": 229.1842,
        "meta_mean_anomaly": 130.5224,
        "meta_ephemeris_type": 0,
        "meta_classification_type": "U",
        "meta_norad_cat_id": 38064,
        "meta_element_set_no": 999,
        "meta_rev_at_epoch": 71967,
        "meta_bstar": 0.00064457855,
        "meta_mean_motion_dot": 2.872e-05,
        "meta_mean_motion_ddot": 0,
        "tle_line1": "1 38064U 93036BRW 25353.75533658  .00002872  00000+0  64458-3 0  9990",
        "tle_line2": "2 38064  74.0226 110.8167 0047209 229.1842 130.5224 14.56354752719677"
      },
      "geometry": {
        "type": "Point",
        "coordinates": [
          -70.63386476983018,
          -4.263462607464101
        ]
      }
    },
    {
      "type": "Feature",
      "properties": {
        "norad_id": 38067,
        "name": "COSMOS 2251 DEB",
        "group": "cosmos-2251-debris",
        "lat": -47.68991385932291,
        "lon": -119.97451166400356,
        "alt_km": 698.9926675262295,
        "timestamp": "2025-12-21T03:56:51.230406+00:00",
        "meta_object_name": "COSMOS 2251 DEB",
        "meta_object_id": "1993-036BRZ",
        "meta_epoch": "2025-12-20T00:18:38.290752",
        "meta_mean_motion": 14.61151533,
        "meta_eccentricity": 0.00696951,
        "meta_inclination": 74.0171,
        "meta_ra_of_asc_node": 260.5817,
        "meta_arg_of_pericenter": 46.2502,
        "meta_mean_anomaly": 329.5601,
        "meta_ephemeris_type": 0,
        "meta_classification_type": "U",
        "meta_norad_cat_id": 38067,
        "meta_element_set_no": 999,
        "meta_rev_at_epoch": 62662,
        "meta_bstar": 0.00024256948,
        "meta_mean_motion_dot": 1.204e-05,
        "meta_mean_motion_ddot": 0,
        "tle_line1": "1 38067U 93036BRZ 25354.01294318  .00001204  00000+0  24257-3 0  9991",
        "tle_line2": "2 38067  74.0171 260.5817 0069695  46.2502 329.5601 14.61151533626627"
      },
      "geometry": {
        "type": "Point",
        "coordinates": [
          -119.97451166400356,
          -47.68991385932291
        ]
      }
    },
    {
      "type": "Feature",
      "properties": {
        "norad_id": 38068,
        "name": "COSMOS 2251 DEB",
        "group": "cosmos-2251-debris",
        "lat": 30.89505631100043,
        "lon": -57.35038457498656,
        "alt_km": 752.8798758232424,
        "timestamp": "2025-12-21T03:56:51.230415+00:00",
        "meta_object_name": "COSMOS 2251 DEB",
        "meta_object_id": "1993-036BSA",
        "meta_epoch": "2025-11-26T00:12:22.263264",
        "meta_mean_motion": 14.35960004,
        "meta_eccentricity": 0.00240903,
        "meta_inclination": 74.0219,
        "meta_ra_of_asc_node": 338.9788,
        "meta_arg_of_pericenter": 72.1007,
        "meta_mean_anomaly": 288.2769,
        "meta_ephemeris_type": 0,
        "meta_classification_type": "U",
        "meta_norad_cat_id": 38068,
        "meta_element_set_no": 999,
        "meta_rev_at_epoch": 66406,
        "meta_bstar": 0.00028750999,
        "meta_mean_motion_dot": 8.11e-06,
        "meta_mean_motion_ddot": 0,
        "tle_line1": "1 38068U 93036BSA 25330.00859101  .00000811  00000+0  28751-3 0  9998",
        "tle_line2": "2 38068  74.0219 338.9788 0024090  72.1007 288.2769 14.35960004664064"
      },
      "geometry": {
        "type": "Point",
        "coordinates": [
          -57.35038457498656,
          30.89505631100043
        ]
      }
    },
    {
      "type": "Feature",
      "properties": {
        "norad_id": 38197,
        "name": "COSMOS 2251 DEB",
        "group": "cosmos-2251-debris",
        "lat": 71.61485768801887,
        "lon": 100.39918321833088,
        "alt_km": 678.7290275262849,
        "timestamp": "2025-12-21T03:56:51.230423+00:00",
        "meta_object_name": "COSMOS 2251 DEB",
        "meta_object_id": "1993-036BSM",
        "meta_epoch": "2025-12-19T05:53:32.639424",
        "meta_mean_motion": 14.74334957,
        "meta_eccentricity": 0.0125223,
        "meta_inclination": 73.937,
        "meta_ra_of_asc_node": 344.2677,
        "meta_arg_of_pericenter": 220.1663,
        "meta_mean_anomaly": 139.0206,
        "meta_ephemeris_type": 0,
        "meta_classification_type": "U",
        "meta_norad_cat_id": 38197,
        "meta_element_set_no": 999,
        "meta_rev_at_epoch": 85851,
        "meta_bstar": 0.0022874,
        "meta_mean_motion_dot": 0.00017202,
        "meta_mean_motion_ddot": 0,
        "tle_line1": "1 38197U 93036BSM 25353.24551666  .00017202  00000+0  22874-2 0  9998",
        "tle_line2": "2 38197  73.9370 344.2677 0125223 220.1663 139.0206 14.74334957858512"
      },
      "geometry": {
        "type": "Point",
        "coordinates": [
          100.39918321833088,
          71.61485768801887
        ]
      }
    },
    {
      "type": "Feature",
      "properties": {
        "norad_id": 38199,
        "name": "COSMOS 2251 DEB",
        "group": "cosmos-2251-debris",
        "lat": 7.2254159905677176,
        "lon": -133.74224877117638,
        "alt_km": 1277.0815757328455,
        "timestamp": "2025-12-21T03:56:51.230432+00:00",
        "meta_object_name": "COSMOS 2251 DEB",
        "meta_object_id": "1993-036BSP",
        "meta_epoch": "2025-12-18T20:33:26.116992",
        "meta_mean_motion": 13.64802181,
        "meta_eccentricity": 0.0369926,
        "meta_inclination": 73.9559,
        "meta_ra_of_asc_node": 52.1388,
        "meta_arg_of_pericenter": 337.4029,
        "meta_mean_anomaly": 21.1146,
        "meta_ephemeris_type": 0,
        "meta_classification_type": "U",
        "meta_norad_cat_id": 38199,
        "meta_element_set_no": 999,
        "meta_rev_at_epoch": 61105,
        "meta_bstar": 0.00049100524,
        "meta_mean_motion_dot": 6.08e-06,
        "meta_mean_motion_ddot": 0,
        "tle_line1": "1 38199U 93036BSP 25352.85655228  .00000608  00000+0  49101-3 0  9990",
        "tle_line2": "2 38199  73.9559  52.1388 0369926 337.4029  21.1146 13.64802181611052"
      },
      "geometry": {
        "type": "Point",
        "coordinates": [
          -133.74224877117638,
          7.2254159905677176
        ]
      }
    }
  ]
}